OBJECT_NAME,OBJECT_ID,EPOCH,MEAN_MOTION,ECCENTRICITY,INCLINATION,RA_OF_ASC_NODE,ARG_OF_PERICENTER,MEAN_ANOMALY,EPHEMERIS_TYPE,CLASSIFICATION_TYPE,NORAD_CAT_ID,ELEMENT_SET_NO,REV_AT_EPOCH,BSTAR,MEAN_MOTION_DOT,MEAN_MOTION_DDOT
IRIDIUM 154,2018-061F,2026-07-17T22:18:50.467392,14.34217515,.00023136,86.3940,43.9471,90.0135,270.1326,0,U,43574,999,41781,.2819577E-5,.28E-6,0
IRIDIUM 163,2018-061G,2026-07-17T11:48:38.526048,14.34217181,.0002002,86.3934,44.0445,85.3177,274.8247,0,U,43575,999,41772,.11264E-8,.2E-6,0
IRIDIUM 156,2018-061H,2026-07-17T12:52:34.400928,14.34218145,.0002122,86.3936,44.0332,93.0957,267.0481,0,U,43576,999,41772,.17248E-4,.68E-6,0
IRIDIUM 164,2018-061J,2026-07-17T22:27:58.492224,14.34218360,.00023652,86.3939,43.9070,89.0553,271.0914,0,U,43577,999,41782,.16777414E-4,.67E-6,0
IRIDIUM 159,2018-061K,2026-07-17T13:19:58.442592,14.34217736,.0002128,86.3935,44.0025,85.9032,274.2407,0,U,43578,999,41773,.1064E-4,.5E-6,0
IRIDIUM 180,2019-002A,2026-07-17T21:41:34.939104,14.34218205,.00021719,86.3995,340.7572,91.2846,268.8599,0,U,43922,999,39339,.50568748E-4,.161E-5,0
IRIDIUM 176,2019-002B,2026-07-17T21:07:55.904160,14.72251076,.00023369,86.6115,340.7060,91.0383,269.1102,0,U,43923,999,40376,.57540493E-4,.387E-5,0
IRIDIUM 168,2019-002C,2026-07-17T21:32:27.047328,14.34217054,.00021764,86.3996,340.8377,90.2394,269.9051,0,U,43924,999,39337,.7922249E-5,.42E-6,0
IRIDIUM 173,2019-002D,2026-07-17T21:14:10.963968,14.34217599,.00020356,86.3988,340.7312,92.3798,267.7631,0,U,43925,999,39335,-.32350865E-4,-.71E-6,0
IRIDIUM 169,2019-002E,2026-07-17T20:33:41.526432,14.38613662,.0001984,86.4225,12.3669,104.7757,255.3661,0,U,43926,999,39463,.14794176E-4,.65E-6,0
IRIDIUM 172,2019-002F,2026-07-17T21:05:02.986656,14.34217946,.00021814,86.3993,340.7414,91.1875,268.9570,0,U,43927,999,39336,.15863452E-4,.64E-6,0
IRIDIUM 175,2019-002G,2026-07-17T18:34:52.859424,14.43627988,.00054234,86.4510,277.7362,110.4413,249.7371,0,U,43928,999,40339,.41312934E-4,.16E-5,0
IRIDIUM 171,2019-002H,2026-07-17T22:18:06.958080,14.34217910,.00022564,86.4003,341.0296,94.7437,265.4017,0,U,43929,999,39336,.13640185E-4,.58E-6,0
IRIDIUM 170,2019-002J,2026-07-17T21:16:48.883296,14.72251641,.00022285,86.6114,340.7055,87.9110,272.2363,0,U,43930,999,40377,.56537468E-4,.381E-5,0
IRIDIUM 167,2019-002K,2026-07-17T22:08:58.950528,14.34217847,.00023411,86.3995,340.7455,98.3553,261.7909,0,U,43931,999,39336,.9158856E-5,.45E-6,0
IRIDIUM 181,2023-068S,2026-07-17T19:39:53.978400,14.43307880,.00023962,86.4476,43.9800,84.5838,275.5636,0,U,56726,999,16685,.28064217E-4,.115E-5,0
IRIDIUM 177,2023-068T,2026-07-17T19:31:56.497440,14.80026424,.00021965,86.1987,314.2513,96.7148,263.4323,0,U,56727,999,17089,.67439916E-4,.537E-5,0
IRIDIUM 174,2023-068U,2026-07-17T16:05:15.328320,14.72259865,.00019881,86.6122,340.9463,89.6924,270.4521,0,U,56728,999,17050,.53077996E-4,.359E-5,0
IRIDIUM 178,2023-068V,2026-07-17T22:30:49.286880,14.80028641,.00022724,86.6536,12.5072,91.1481,269.0001,0,U,56729,999,17091,.19709812E-4,.175E-5,0
IRIDIUM 179,2023-068W,2026-07-17T22:23:07.448640,14.80023385,.00023649,86.6768,21.5796,93.6401,266.5091,0,U,56730,999,17091,.9836605E-5,.101E-5,0
